STARLINK-3242           
1 49727U 21115D   26068.56380860 -.00000419  00000+0 -82210-5 0  9990
2 49727  53.2177 159.6887 0001386  85.6091 274.5060 15.08838350235372
STARLINK-3240           
1 49728U 21115E   26068.56749009 -.00000676  00000+0 -24371-4 0  9993
2 49728  53.2181 159.6694 0001553  99.2198 260.8970 15.08836642235379
STARLINK-3251           
1 49729U 21115F   26068.56011722  .00001492  00000+0  11185-3 0  9991
2 49729  53.2168 159.5894 0001171  83.0299 277.0826 15.08835656235379
STARLINK-3249           
1 49730U 21115G   26068.46447218  .00004682  00000+0  31228-3 0  9999
2 49730  53.2178 160.3234 0001553 118.2346 241.8804 15.08815855235350
STARLINK-3246           
1 49732U 21115J   26068.53807054 -.00000135  00000+0  95851-5 0  9991
2 49732  53.2169 159.9539 0001025  88.6570 271.4540 15.08832687235366
STARLINK-3252           
1 49733U 21115K   26068.51596401  .00000687  00000+0  61263-4 0  9991
2 49733  53.2181 159.9016 0001289  93.3486 266.7653 15.08849963235369
STARLINK-3238           
1 49734U 21115L   26068.53529932  .00002316  00000+0  16366-3 0  9993
2 49734  53.2191 149.8428 0001574 105.1106 255.0061 15.08822245235519
STARLINK-3113           
1 49735U 21115M   26068.50859719 -.00000844  00000+0 -34922-4 0  9995
2 49735  53.2161 159.8171 0001222 105.1860 254.9268 15.08842889235366
STARLINK-3148           
1 49736U 21115N   26068.53159209  .00000262  00000+0  34553-4 0  9998
2 49736  53.2182 149.7179 0001451 105.4644 254.6508 15.08843633235512
STARLINK-3225           
1 49737U 21115P   26068.53896833  .00000901  00000+0  74690-4 0  9996
2 49737  53.2171 149.7979 0001669  90.6292 269.4892 15.08829140235511
STARLINK-3143           
1 49738U 21115Q   26068.49946899  .00000781  00000+0  67138-4 0  9995
2 49738  53.2163 150.1795 0001403  77.1167 282.9982 15.08834226235502
STARLINK-3155           
1 49739U 21115R   26068.52700673 -.00000098  00000+0  11960-4 0  9992
2 49739  53.2178 159.8504 0001405 102.4242 257.6908 15.08843236235363
STARLINK-3226           
1 49740U 21115S   26068.48840130 -.00000216  00000+0  45291-5 0  9999
2 49740  53.2168 149.9966 0001512  83.1593 276.9571 15.08839368235506
STARLINK-3244           
1 49741U 21115T   26068.48472688 -.00000755  00000+0 -29320-4 0  9992
2 49741  53.2179 150.0538 0001525  82.8831 277.2335 15.08838653235500
STARLINK-3202           
1 49742U 21115U   26068.49848785  .00000265  00000+0  34768-4 0  9995
2 49742  53.2174 149.9773 0001463  89.0826 271.0333 15.08830345235508
STARLINK-3239           
1 49743U 21115V   26068.54728021 -.00000338  00000+0 -31408-5 0  9994
2 49743  53.2175 149.6935 0001248  81.7072 278.4062 15.08836358235511
STARLINK-3231           
1 49744U 21115W   26068.49575278 -.00002981  00000+0 -16926-3 0  9995
2 49744  53.2174 149.8860 0001392  84.1838 275.9313 15.08847702235502
STARLINK-3241           
1 49745U 21115X   26068.49207955 -.00000506  00000+0 -13707-4 0  9996
2 49745  53.2169 149.9793 0000508  60.3093 299.7949 15.08842290235506
STARLINK-3233           
1 49746U 21115Y   26068.51320943  .00000378  00000+0  41853-4 0  9991
2 49746  53.2174 149.9127 0001280  94.8594 265.2545 15.08833730235509
STARLINK-3247           
1 49747U 21115Z   26068.43592631 -.00001248  00000+0 -60353-4 0  9993
2 49747  53.2179 150.2605 0001468  97.1271 262.9888 15.08838881235491
STARLINK-3248           
1 49748U 21115AA  26068.54627661 -.00000248  00000+0  24997-5 0  9991
2 49748  53.2184 149.3432 0001574  78.0209 282.0959 15.08840898235529
STARLINK-3250           
1 49749U 21115AB  26068.53259743  .00001308  00000+0  10026-3 0  9996
2 49749  53.2173 150.0725 0001164  99.4639 260.6485 15.08835062235502
STARLINK-3236           
1 49750U 21115AC  26068.52889554 -.00000320  00000+0 -19993-5 0  9995
2 49750  53.2167 149.8543 0001072  94.0190 266.0925 15.08832827235518
STARLINK-3229           
1 49751U 21115AD  26068.50951862  .00000272  00000+0  35157-4 0  9999
2 49751  53.2178 149.8526 0001278  93.5177 266.5961 15.08832801235516
STARLINK-3209           
1 49752U 21115AE  26068.47828917 -.00000897  00000+0 -38247-4 0  9998
2 49752  53.2181 140.0795 0001492  97.8265 262.2897 15.08837439235642
STARLINK-3200           
1 49753U 21115AF  26068.52424699 -.00000301  00000+0 -79507-6 0  9990
2 49753  53.2163 149.8673 0001754  69.5833 290.5348 15.08835813235518
STARLINK-3193           
1 49754U 21115AG  26068.41478290 -.00000585  00000+0 -18685-4 0  9997
2 49754  53.2170 140.4580 0001196 100.8039 259.3088 15.08833512235639
STARLINK-3210           
1 49755U 21115AH  26068.53626718 -.00002559  00000+0 -14279-3 0  9998
2 49755  53.2171 149.8550 0001288  89.9257 270.1883 15.08824357235510
STARLINK-3207           
1 49756U 21115AJ  26068.48836627 -.00000203  00000+0  53499-5 0  9997
2 49756  53.2170 140.0239 0001529 103.8178 256.2985 15.08835744235647
STARLINK-3197           
1 49757U 21115AK  26068.48196619 -.00000860  00000+0 -35980-4 0  9992
2 49757  53.2177 140.0638 0001371 100.0108 260.1039 15.08839558235646
STARLINK-3194           
1 49758U 21115AL  26068.42948847 -.00002991  00000+0 -16993-3 0  9994
2 49758  53.2166 140.2941 0001634  81.7139 278.4039 15.08835621235633
STARLINK-3204           
1 49759U 21115AM  26068.48468745 -.00000159  00000+0  81139-5 0  9994
2 49759  53.2168 140.0392 0001337 100.2590 259.8553 15.08833857235646
STARLINK-3199           
1 49760U 21115AN  26068.50309440 -.00001802  00000+0 -95198-4 0  9991
2 49760  53.2171 139.9583 0001259  86.1555 273.9581 15.08826102235651
STARLINK-3203           
1 49761U 21115AP  26068.42580933 -.00000871  00000+0 -36624-4 0  9995
2 49761  53.2181 140.3041 0001388  85.9447 274.1704 15.08834749235632
STARLINK-3195           
1 49762U 21115AQ  26068.51044658  .00000741  00000+0  64667-4 0  9997
2 49762  53.2171 139.9291 0001405  88.9387 271.1766 15.08841283235657
STARLINK-3198           
1 49763U 21115AR  26068.56568076  .00003751  00000+0  25397-3 0  9998
2 49763  53.2172 139.6726 0001285 113.3539 246.7588 15.08790530235666
STARLINK-3227           
1 49765U 21115AT  26068.50772881 -.00000493  00000+0 -12866-4 0  9995
2 49765  53.2180 139.9459 0001773  79.5782 280.5410 15.08839343235653
STARLINK-3190           
1 49766U 21115AU  26068.45620761 -.00001128  00000+0 -52808-4 0  9995
2 49766  53.2153 140.1784 0001390  86.6291 273.4860 15.08838372235648
STARLINK-3192           
1 49767U 21115AV  26068.51413364  .00000176  00000+0  29173-4 0  9991
2 49767  53.2178 139.9103 0001357  89.0818 271.0330 15.08834739235652
STARLINK-3196           
1 49768U 21115AW  26068.46260809  .00000095  00000+0  24032-4 0  9999
2 49768  53.2182 140.1345 0001381  70.7782 289.3359 15.08835295235644
STARLINK-3208           
1 49769U 21115AX  26068.46355856  .00000710  00000+0  62679-4 0  9990
2 49769  53.2177 140.1838 0001529  90.6342 269.4826 15.08853989235641
STARLINK-3191           
1 49770U 21115AY  26068.47093372 -.00000594  00000+0 -19205-4 0  9994
2 49770  53.2176 140.1532 0001358  89.6849 270.4299 15.08837440236767
STARLINK-3201           
1 49771U 21115AZ  26068.46996695 -.00000157  00000+0  82301-5 0  9996
2 49771  53.2162 140.1106 0001314  83.0787 277.0355 15.08836744235649
GLOBAL-12               
1 49772U 21115BA  26068.56660039  .00031924  00000+0  60973-3 0  9992
2 49772  53.1963 161.5139 0003442  55.3902 304.7431 15.47856556240449
GLOBAL-13               
1 49773U 21115BB  26068.51132398  .00021180  00000+0  49469-3 0  9990
2 49773  53.1979 167.0832 0001810 133.3016 226.8141 15.42167280240365
GSAT0223 (GALILEO 27)   
1 49809U 21116A   26048.03988929 -.00000078  00000+0  00000+0 0  9993
2 49809  57.2005 344.9238 0002865 278.1950 264.6358  1.70475508 26130
GSAT0224 (GALILEO 28)   
1 49810U 21116B   26064.29072237 -.00000105  00000+0  00000+0 0  9998
2 49810  57.1948 344.4822 0001942 295.2728 253.6293  1.70475760 26438
STPSAT-6                
1 49817U 21118A   26068.73449767 -.00000043  00000+0  00000+0 0  9997
2 49817   0.0648  87.1960 0002554 240.8705 351.9030  1.00270154 15571
LDPE-1                  
1 49818U 21118B   26068.75336150 -.00000210  00000+0  00000+0 0  9997
2 49818   4.6628  72.5769 0002462 182.0404 356.0800  0.98874443 15653
GLOBAL-17               
1 49949U 21120A   26068.00092776  .00034493  00000+0  66818-3 0  9998
2 49949  41.9954 283.9751 0012270 270.4328  89.5109 15.46963122239355
GLOBAL-16               
1 49950U 21120B   26067.89510393  .00031071  00000+0  63758-3 0  9995
2 49950  41.9956 286.6844 0010298 260.6188  99.3490 15.45353214239306
IXPE                    
1 49954U 21121A   26068.83334490  .00021962  00000+0  12799-2 0  9993
2 49954   0.2308 348.5107 0007562  15.7532 234.1599 15.09220528  5818
SHIJIAN-6 05A (SJ-6 05A)
1 49961U 21122A   26068.88345882  .00003299  00000+0  27617-3 0  9993
2 49961  97.4012  42.3306 0003221  76.6317 283.5266 14.99085264233873
SHIJIAN-6 05B (SJ-6 05B)
1 49962U 21122B   26068.69026669  .00003434  00000+0  20679-3 0  9994
2 49962  97.3727  52.7566 0002764  59.7124 300.4380 15.11445981234719
EXPRESS AMU-7           
1 50001U 21123A   26067.17905308  .00000000  00000+0  00000+0 0  9997
2 50001   0.0170 162.6976 0000244 277.7467 294.9080  1.00269964 15525
EXPRESS AMU-3           
1 50002U 21123B   26068.25044606  .00000000  00000+0  00000+0 0  9993
2 50002   0.0174 171.8353 0000434  42.3379 145.8240  1.00269013  6033
TIANLIAN 2-02           
1 50005U 21124A   26068.82451517 -.00000013  00000+0  00000+0 0  9998
2 50005   0.5441  88.0913 0004214 212.5392 334.6368  1.00271955 15627
STARLINK-3297           
1 50159U 21125D   26068.76164687 -.00000207  00000+0  50740-5 0  9998
2 50159  53.2175 258.8095 0001456  97.4511 262.6647 15.08837403236468
STARLINK-3304           
1 50161U 21125F   26068.77172854  .00001172  00000+0  91740-4 0  9992
2 50161  53.2164 258.7523 0001066  95.9728 264.1386 15.08833438236465
